ORBCOMM FM37            
1 33064U 08031E   25254.42381753  .00001087  00000+0  16989-3 0  9990
2 33064  48.4402 293.5844 0005127  17.2632 357.0291 14.80047363926821
ORBCOMM FM40            
1 33065U 08031F   25254.49832282  .00001398  00000+0  19964-3 0  9997
2 33065  48.4403 275.7989 0006110  33.5095 120.5151 14.82381360926965
VESSELSAT 1             
1 37840U 11058C   25254.42497570  .00000353  00000+0  48242-4 0  9997
2 37840  19.9621 292.0603 0013795  55.5987 304.5720 14.11368902718505
ORBCOMM FM109           
1 40086U 14040A   25254.51602557  .00000441  00000+0  13088-3 0  9997
2 40086  47.0046 328.5439 0001406 340.5027  19.5805 14.58295055593668
ORBCOMM FM107           
1 40087U 14040B   25254.47173823  .00000468  00000+0  13657-3 0  9993
2 40087  47.0064 329.6827 0001880 288.3629  71.7052 14.58376327593739
ORBCOMM FM106           
1 40088U 14040C   25254.17046527  .00000828  00000+0  16918-3 0  9994
2 40088  47.0599 146.3079 0016254 106.1751 254.0930 14.69633566596120
ORBCOMM FM111           
1 40089U 14040D   25254.51869043  .00002009  00000+0  24561-3 0  9995
2 40089  47.0027 343.0770 0030979 247.0196 112.7432 14.86776565603075
ORBCOMM FM104           
1 40090U 14040E   25254.34947235  .00000456  00000+0  13845-3 0  9995
2 40090  47.0068   4.9079 0017167 239.1607 120.7590 14.56765333593182
